{
  "links" : {
    "next" : "https://api.nasa.gov/neo/rest/v1/neo/browse?page=27&size=20&api_key=jqAGvNAwUIBu4fl9FSOjdm3V4F7hIglRzI6pdX9d",
    "prev" : "https://api.nasa.gov/neo/rest/v1/neo/browse?page=25&size=20&api_key=jqAGvNAwUIBu4fl9FSOjdm3V4F7hIglRzI6pdX9d",
    "self" : "https://api.nasa.gov/neo/rest/v1/neo/browse?page=26&size=20&api_key=jqAGvNAwUIBu4fl9FSOjdm3V4F7hIglRzI6pdX9d"
  },
  "page" : {
    "size" : 20,
    "total_elements" : 20750,
    "total_pages" : 1038,
    "number" : 26
  },
  "near_earth_objects" : [ {
    "links" : {
      "self" : "https://api.nasa.gov/neo/rest/v1/neo/3325655?api_key=jqAGvNAwUIBu4fl9FSOjdm3V4F7hIglRzI6pdX9d"
    },
    "neo_reference_id" : "3325655",
    "name" : "(2006 EH)",
    "designation" : "2006 EH",
    "nasa_jpl_url" : "http://ssd.jpl.nasa.gov/sbdb.cgi?sstr=3325655",
    "absolute_magnitude_h" : 20.7,
    "estimated_diameter" : {
      "kilometers" : {
        "estimated_diameter_min" : 0.1925550782,
        "estimated_diameter_max" : 0.4305662442
      },
      "meters" : {
        "estimated_diameter_min" : 192.5550781879,
        "estimated_diameter_max" : 430.566244241
      },
      "miles" : {
        "estimated_diameter_min" : 0.1196481415,
        "estimated_diameter_max" : 0.2675413778
      },
      "feet" : {
        "estimated_diameter_min" : 631.7424027221,
        "estimated_diameter_max" : 1412.6189567557
      }
    },
    "is_potentially_hazardous_asteroid" : false,
    "close_approach_data" : [ {
      "close_approach_date" : "2005-10-23",
      "epoch_date_close_approach" : 1130050800000,
      "relative_velocity" : {
        "kilometers_per_second" : "18.8709375509",
        "kilometers_per_hour" : "67935.3751831201",
        "miles_per_hour" : "42212.4002075337"
      },
      "miss_distance" : {
        "astronomical" : "0.4496755527",
        "lunar" : "174.9237976074",
        "kilometers" : "67270504",
        "miles" : "41799956"
      },
      "orbiting_body" : "Earth"
    } ],
    "orbital_data" : {
      "orbit_id" : "10",
      "orbit_determination_date" : "2017-04-06 09:10:34",
      "first_observation_date" : "2006-03-02",
      "last_observation_date" : "2006-03-25",
      "data_arc_in_days" : 23,
      "observations_used" : 20,
      "orbit_uncertainty" : "8",
      "minimum_orbit_intersection" : ".299467",
      "jupiter_tisserand_invariant" : "2.972",
      "epoch_osculation" : "2453803.5",
      "eccentricity" : ".6172549883159156",
      "semi_major_axis" : "2.676002016804054",
      "inclination" : "24.43437567947007",
      "ascending_node_longitude" : "170.4161713226482",
      "orbital_period" : "1598.924957654078",
      "perihelion_distance" : "1.024226423188301",
      "perihelion_argument" : "280.1359518382202",
      "aphelion_distance" : "4.327777610419806",
      "perihelion_time" : "2453709.028165612496",
      "mean_anomaly" : "21.27045438667758",
      "mean_motion" : ".2251512794747963",
      "equinox" : "J2000",
      "orbit_class" : {
        "orbit_class_type" : "AMO",
        "orbit_class_range" : "1.017 AU < q (perihelion) < 1.3 AU",
        "orbit_class_description" : "Near-Earth asteroid orbits similar to that of 1221 Amor"
      }
    },
    "is_sentry_object" : false
  }, {
    "links" : {
      "self" : "https://api.nasa.gov/neo/rest/v1/neo/3325672?api_key=jqAGvNAwUIBu4fl9FSOjdm3V4F7hIglRzI6pdX9d"
    },
    "neo_reference_id" : "3325672",
    "name" : "(2006 EY)",
    "designation" : "2006 EY",
    "nasa_jpl_url" : "http://ssd.jpl.nasa.gov/sbdb.cgi?sstr=3325672",
    "absolute_magnitude_h" : 25.1,
    "estimated_diameter" : {
      "kilometers" : {
        "estimated_diameter_min" : 0.0253837029,
        "estimated_diameter_max" : 0.0567596853
      },
      "meters" : {
        "estimated_diameter_min" : 25.3837029364,
        "estimated_diameter_max" : 56.7596852866
      },
      "miles" : {
        "estimated_diameter_min" : 0.0157726969,
        "estimated_diameter_max" : 0.0352688224
      },
      "feet" : {
        "estimated_diameter_min" : 83.279867942,
        "estimated_diameter_max" : 186.2194458756
      }
    },
    "is_potentially_hazardous_asteroid" : false,
    "close_approach_data" : [ {
      "close_approach_date" : "1999-10-14",
      "epoch_date_close_approach" : 939884400000,
      "relative_velocity" : {
        "kilometers_per_second" : "7.6387273374",
        "kilometers_per_hour" : "27499.4184144718",
        "miles_per_hour" : "17087.0691809256"
      },
      "miss_distance" : {
        "astronomical" : "0.0469846808",
        "lunar" : "18.2770404816",
        "kilometers" : "7028808",
        "miles" : "4367499"
      },
      "orbiting_body" : "Mars"
    }, {
      "close_approach_date" : "2006-04-05",
      "epoch_date_close_approach" : 1144220400000,
      "relative_velocity" : {
        "kilometers_per_second" : "4.4076751415",
        "kilometers_per_hour" : "15867.6305092476",
        "miles_per_hour" : "9859.5285239267"
      },
      "miss_distance" : {
        "astronomical" : "0.0500471729",
        "lunar" : "19.4683513641",
        "kilometers" : "7486950.5",
        "miles" : "4652175.5"
      },
      "orbiting_body" : "Earth"
    } ],
    "orbital_data" : {
      "orbit_id" : "10",
      "orbit_determination_date" : "2017-04-06 09:08:58",
      "first_observation_date" : "2006-03-04",
      "last_observation_date" : "2006-03-25",
      "data_arc_in_days" : 21,
      "observations_used" : 40,
      "orbit_uncertainty" : "8",
      "minimum_orbit_intersection" : ".0489318",
      "jupiter_tisserand_invariant" : "4.643",
      "epoch_osculation" : "2453804.5",
      "eccentricity" : ".2774116319064013",
      "semi_major_axis" : "1.430375178035869",
      "inclination" : "3.945339308866242",
      "ascending_node_longitude" : "350.0806078833271",
      "orbital_period" : "624.8465472723865",
      "perihelion_distance" : "1.033572465658529",
      "perihelion_argument" : "218.2552829997105",
      "aphelion_distance" : "1.827177890413208",
      "perihelion_time" : "2453842.580297225975",
      "mean_anomaly" : "338.0603620821882",
      "mean_motion" : ".5761414567648508",
      "equinox" : "J2000",
      "orbit_class" : {
        "orbit_class_type" : "AMO",
        "orbit_class_range" : "1.017 AU < q (perihelion) < 1.3 AU",
        "orbit_class_description" : "Near-Earth asteroid orbits similar to that of 1221 Amor"
      }
    },
    "is_sentry_object" : false
  }, {
    "links" : {
      "self" : "https://api.nasa.gov/neo/rest/v1/neo/3325673?api_key=jqAGvNAwUIBu4fl9FSOjdm3V4F7hIglRzI6pdX9d"
    },
    "neo_reference_id" : "3325673",
    "name" : "(2006 EB1)",
    "designation" : "2006 EB1",
    "nasa_jpl_url" : "http://ssd.jpl.nasa.gov/sbdb.cgi?sstr=3325673",
    "absolute_magnitude_h" : 23.4,
    "estimated_diameter" : {
      "kilometers" : {
        "estimated_diameter_min" : 0.0555334912,
        "estimated_diameter_max" : 0.1241766613
      },
      "meters" : {
        "estimated_diameter_min" : 55.5334911581,
        "estimated_diameter_max" : 124.1766612574
      },
      "miles" : {
        "estimated_diameter_min" : 0.0345069009,
        "estimated_diameter_max" : 0.0771597762
      },
      "feet" : {
        "estimated_diameter_min" : 182.1964991311,
        "estimated_diameter_max" : 407.4037573197
      }
    },
    "is_potentially_hazardous_asteroid" : false,
    "close_approach_data" : [ {
      "close_approach_date" : "2006-03-01",
      "epoch_date_close_approach" : 1141200000000,
      "relative_velocity" : {
        "kilometers_per_second" : "8.3283004288",
        "kilometers_per_hour" : "29981.8815438105",
        "miles_per_hour" : "18629.5752292638"
      },
      "miss_distance" : {
        "astronomical" : "0.0377355904",
        "lunar" : "14.6791439056",
        "kilometers" : "5645164",
        "miles" : "3507742.25"
      },
      "orbiting_body" : "Earth"
    } ],
    "orbital_data" : {
      "orbit_id" : "11",
      "orbit_determination_date" : "2017-04-06 09:08:57",
      "first_observation_date" : "2006-03-04",
      "last_observation_date" : "2006-04-19",
      "data_arc_in_days" : 46,
      "observations_used" : 67,
      "orbit_uncertainty" : "7",
      "minimum_orbit_intersection" : ".0425769",
      "jupiter_tisserand_invariant" : "3.521",
      "epoch_osculation" : "2458600.5",
      "eccentricity" : ".5161952216673882",
      "semi_major_axis" : "2.134586943547074",
      "inclination" : "9.24486161681431",
      "ascending_node_longitude" : "160.6182276125975",
      "orbital_period" : "1139.119273145457",
      "perihelion_distance" : "1.03272336305448",
      "perihelion_argument" : "5.352271494579397",
      "aphelion_distance" : "3.236450524039669",
      "perihelion_time" : "2458355.510840813033",
      "mean_anomaly" : "77.42481352613032",
      "mean_motion" : ".3160336309699421",
      "equinox" : "J2000",
      "orbit_class" : {
        "orbit_class_type" : "AMO",
        "orbit_class_range" : "1.017 AU < q (perihelion) < 1.3 AU",
        "orbit_class_description" : "Near-Earth asteroid orbits similar to that of 1221 Amor"
      }
    },
    "is_sentry_object" : false
  } ]
}